OOV-CUBE (TUBSAT-30)    
1 60240U 24128F   26063.90356539  .00004636  00000+0  35460-3 0  9995
2 60240  61.9939 229.0603 0054923 111.3663 249.3301 15.02205334 90441
COLIBRI-S (RS67S)       
1 61746U 24199M   26064.27562779  .00026652  00000+0  60064-3 0  9991
2 61746  97.3163 297.4168 0007892 305.1319  54.9189 15.43206307121360
HORS 3 (RS81S)          
1 61753U 24199U   26064.25131904  .00040344  00000+0  76989-3 0  9996
2 61753  97.3133 298.4673 0006046 312.7075  47.3666 15.48019976121444
HORS 4 (RS82S)          
1 61754U 24199V   26064.26256262  .00045523  00000+0  78856-3 0  9992
2 61754  97.3106 299.1587 0005689 309.4767  50.5982 15.50763269121496
HORIZON (RS59S)         
1 61757U 24199Y   26064.28356036  .00141173  00000+0  12147-2 0  9995
2 61757  97.3078 302.8949 0003177 280.5096  79.5808 15.68870673121737
ARCTICSAT 1 (RS74S)     
1 61762U 24199AD  26064.28431607  .00106116  00000+0  10836-2 0  9990
2 61762  97.3096 302.4455 0003585 278.3244  81.7609 15.64712387121708
SIT-2086                
1 61764U 24199AF  26064.26029305  .00029155  00000+0  56997-3 0  9994
2 61764  97.3128 299.2123 0006204 292.1090  67.9502 15.47385090118336
RUZAEVKA 390 (RS44S)    
1 61766U 24199AH  26064.31099654  .01286925  99839-3  17916-2 0  9996
2 61766  97.2830 306.3351 0002224 166.7017 193.4324 16.06197929118822
HYPERVIEW 1G (RS66S)    
1 61772U 24199AP  26064.25963129  .00073331  00000+0  99861-3 0  9995
2 61772  97.3091 300.2185 0006862 305.8679  54.1939 15.57280820118417
ALTAIR (RS65S)          
1 61779U 24199AW  26064.26859050  .00014262  00000+0  42256-3 0  9994
2 61779  97.3185 294.3612 0012483 325.8065  34.2373 15.34887778121160
ASRTU-1 (AO-123)        
1 61781U 24199AY  26064.31077812  .00012174  00000+0  37179-3 0  9999
2 61781  97.3158 293.9379 0013217 327.4211  32.6215 15.33957725117997
TUSUR GO (RS78S)        
1 61782U 24199AZ  26064.29792536  .00159078  00000+0  13413-2 0  9993
2 61782  97.3028 301.9195 0004017 301.2490  58.8378 15.69308464118537
SAMSAT-IONOSPHERE (RS7*)
1 61784U 24199BB  26064.27877859  .00043164  00000+0  79156-3 0  9990
2 61784  97.3120 298.2812 0009020 313.0772  46.9724 15.49125229121439
RTU MIREA 1 (RS51S)     
1 61785U 24199BC  26064.28208938  .00049306  00000+0  84580-3 0  9999
2 61785  97.3117 298.7165 0008757 308.4793  51.5673 15.50996158118316
TEVEL2-4                
1 63213U 25052D   26064.24922284  .00024165  00000+0  81497-3 0  9999
2 63213  97.4029 320.6902 0004587 104.2411 255.9339 15.30701158 54193
TEVEL2-5                
1 63214U 25052E   26064.12907731  .00023858  00000+0  80779-3 0  9997
2 63214  97.4027 320.5439 0004529 104.6405 255.5338 15.30576556 54174
