[{"OBJECT_NAME":"OOV-CUBE (TUBSAT-30)","OBJECT_ID":"2024-128F","EPOCH":"2026-03-04T21:41:08.049696","MEAN_MOTION":15.02205334,"ECCENTRICITY":0.00549234,"INCLINATION":61.9939,"RA_OF_ASC_NODE":229.0603,"ARG_OF_PERICENTER":111.3663,"MEAN_ANOMALY":249.3301,"EPHEMERIS_TYPE":0,"CLASSIFICATION_TYPE":"U","NORAD_CAT_ID":60240,"ELEMENT_SET_NO":999,"REV_AT_EPOCH":9044,"BSTAR":0.0003546024,"MEAN_MOTION_DOT":4.636e-5,"MEAN_MOTION_DDOT":0},{"OBJECT_NAME":"COLIBRI-S (RS67S)","OBJECT_ID":"2024-199M","EPOCH":"2026-03-05T06:36:54.241056","MEAN_MOTION":15.43206307,"ECCENTRICITY":0.00078929,"INCLINATION":97.3163,"RA_OF_ASC_NODE":297.4168,"ARG_OF_PERICENTER":305.1319,"MEAN_ANOMALY":54.9189,"EPHEMERIS_TYPE":0,"CLASSIFICATION_TYPE":"U","NORAD_CAT_ID":61746,"ELEMENT_SET_NO":999,"REV_AT_EPOCH":12136,"BSTAR":0.00060064363,"MEAN_MOTION_DOT":0.00026652,"MEAN_MOTION_DDOT":0},{"OBJECT_NAME":"HORS 3 (RS81S)","OBJECT_ID":"2024-199U","EPOCH":"2026-03-05T06:01:53.965056","MEAN_MOTION":15.48019976,"ECCENTRICITY":0.00060464,"INCLINATION":97.3133,"RA_OF_ASC_NODE":298.4673,"ARG_OF_PERICENTER":312.7075,"MEAN_ANOMALY":47.3666,"EPHEMERIS_TYPE":0,"CLASSIFICATION_TYPE":"U","NORAD_CAT_ID":61753,"ELEMENT_SET_NO":999,"REV_AT_EPOCH":12144,"BSTAR":0.0007698857,"MEAN_MOTION_DOT":0.00040344,"MEAN_MOTION_DDOT":0},{"OBJECT_NAME":"HORS 4 (RS82S)","OBJECT_ID":"2024-199V","EPOCH":"2026-03-05T06:18:05.410368","MEAN_MOTION":15.50763269,"ECCENTRICITY":0.00056899,"INCLINATION":97.3106,"RA_OF_ASC_NODE":299.1587,"ARG_OF_PERICENTER":309.4767,"MEAN_ANOMALY":50.5982,"EPHEMERIS_TYPE":0,"CLASSIFICATION_TYPE":"U","NORAD_CAT_ID":61754,"ELEMENT_SET_NO":999,"REV_AT_EPOCH":12149,"BSTAR":0.00078855993,"MEAN_MOTION_DOT":0.00045523,"MEAN_MOTION_DDOT":0},{"OBJECT_NAME":"HORIZON (RS59S)","OBJECT_ID":"2024-199Y","EPOCH":"2026-03-05T06:48:19.615104","MEAN_MOTION":15.68870673,"ECCENTRICITY":0.0003177,"INCLINATION":97.3078,"RA_OF_ASC_NODE":302.8949,"ARG_OF_PERICENTER":280.5096,"MEAN_ANOMALY":79.5808,"EPHEMERIS_TYPE":0,"CLASSIFICATION_TYPE":"U","NORAD_CAT_ID":61757,"ELEMENT_SET_NO":999,"REV_AT_EPOCH":12173,"BSTAR":0.001214727,"MEAN_MOTION_DOT":0.00141173,"MEAN_MOTION_DDOT":0},{"OBJECT_NAME":"ARCTICSAT 1 (RS74S)","OBJECT_ID":"2024-199AD","EPOCH":"2026-03-05T06:49:24.908448","MEAN_MOTION":15.64712387,"ECCENTRICITY":0.00035854,"INCLINATION":97.3096,"RA_OF_ASC_NODE":302.4455,"ARG_OF_PERICENTER":278.3244,"MEAN_ANOMALY":81.7609,"EPHEMERIS_TYPE":0,"CLASSIFICATION_TYPE":"U","NORAD_CAT_ID":61762,"ELEMENT_SET_NO":999,"REV_AT_EPOCH":12170,"BSTAR":0.0010835608,"MEAN_MOTION_DOT":0.00106116,"MEAN_MOTION_DDOT":0},{"OBJECT_NAME":"SIT-2086","OBJECT_ID":"2024-199AF","EPOCH":"2026-03-05T06:14:49.319520","MEAN_MOTION":15.4738509,"ECCENTRICITY":0.00062046,"INCLINATION":97.3128,"RA_OF_ASC_NODE":299.2123,"ARG_OF_PERICENTER":292.109,"MEAN_ANOMALY":67.9502,"EPHEMERIS_TYPE":0,"CLASSIFICATION_TYPE":"U","NORAD_CAT_ID":61764,"ELEMENT_SET_NO":999,"REV_AT_EPOCH":11833,"BSTAR":0.00056997379,"MEAN_MOTION_DOT":0.00029155,"MEAN_MOTION_DDOT":0},{"OBJECT_NAME":"RUZAEVKA 390 (RS44S)","OBJECT_ID":"2024-199AH","EPOCH":"2026-03-05T07:27:50.101056","MEAN_MOTION":16.06197929,"ECCENTRICITY":0.00022249,"INCLINATION":97.283,"RA_OF_ASC_NODE":306.3351,"ARG_OF_PERICENTER":166.7017,"MEAN_ANOMALY":193.4324,"EPHEMERIS_TYPE":0,"CLASSIFICATION_TYPE":"U","NORAD_CAT_ID":61766,"ELEMENT_SET_NO":999,"REV_AT_EPOCH":11882,"BSTAR":0.0017916307,"MEAN_MOTION_DOT":0.01286925,"MEAN_MOTION_DDOT":0.00099839354},{"OBJECT_NAME":"HYPERVIEW 1G (RS66S)","OBJECT_ID":"2024-199AP","EPOCH":"2026-03-05T06:13:52.143456","MEAN_MOTION":15.5728082,"ECCENTRICITY":0.0006862,"INCLINATION":97.3091,"RA_OF_ASC_NODE":300.2185,"ARG_OF_PERICENTER":305.8679,"MEAN_ANOMALY":54.1939,"EPHEMERIS_TYPE":0,"CLASSIFICATION_TYPE":"U","NORAD_CAT_ID":61772,"ELEMENT_SET_NO":999,"REV_AT_EPOCH":11841,"BSTAR":0.00099860635,"MEAN_MOTION_DOT":0.00073331,"MEAN_MOTION_DDOT":0},{"OBJECT_NAME":"ALTAIR (RS65S)","OBJECT_ID":"2024-199AW","EPOCH":"2026-03-05T06:26:46.219200","MEAN_MOTION":15.34887778,"ECCENTRICITY":0.00124838,"INCLINATION":97.3185,"RA_OF_ASC_NODE":294.3612,"ARG_OF_PERICENTER":325.8065,"MEAN_ANOMALY":34.2373,"EPHEMERIS_TYPE":0,"CLASSIFICATION_TYPE":"U","NORAD_CAT_ID":61779,"ELEMENT_SET_NO":999,"REV_AT_EPOCH":12116,"BSTAR":0.00042256026,"MEAN_MOTION_DOT":0.00014262,"MEAN_MOTION_DDOT":0},{"OBJECT_NAME":"ASRTU-1 (AO-123)","OBJECT_ID":"2024-199AY","EPOCH":"2026-03-05T07:27:31.229568","MEAN_MOTION":15.33957725,"ECCENTRICITY":0.00132179,"INCLINATION":97.3158,"RA_OF_ASC_NODE":293.9379,"ARG_OF_PERICENTER":327.4211,"MEAN_ANOMALY":32.6215,"EPHEMERIS_TYPE":0,"CLASSIFICATION_TYPE":"U","NORAD_CAT_ID":61781,"ELEMENT_SET_NO":999,"REV_AT_EPOCH":11799,"BSTAR":0.00037179397,"MEAN_MOTION_DOT":0.00012174,"MEAN_MOTION_DDOT":0},{"OBJECT_NAME":"TUSUR GO (RS78S)","OBJECT_ID":"2024-199AZ","EPOCH":"2026-03-05T07:09:00.751104","MEAN_MOTION":15.69308464,"ECCENTRICITY":0.00040175,"INCLINATION":97.3028,"RA_OF_ASC_NODE":301.9195,"ARG_OF_PERICENTER":301.249,"MEAN_ANOMALY":58.8378,"EPHEMERIS_TYPE":0,"CLASSIFICATION_TYPE":"U","NORAD_CAT_ID":61782,"ELEMENT_SET_NO":999,"REV_AT_EPOCH":11853,"BSTAR":0.0013413292,"MEAN_MOTION_DOT":0.00159078,"MEAN_MOTION_DDOT":0},{"OBJECT_NAME":"SAMSAT-IONOSPHERE (RS75S)","OBJECT_ID":"2024-199BB","EPOCH":"2026-03-05T06:41:26.470176","MEAN_MOTION":15.49125229,"ECCENTRICITY":0.00090208,"INCLINATION":97.312,"RA_OF_ASC_NODE":298.2812,"ARG_OF_PERICENTER":313.0772,"MEAN_ANOMALY":46.9724,"EPHEMERIS_TYPE":0,"CLASSIFICATION_TYPE":"U","NORAD_CAT_ID":61784,"ELEMENT_SET_NO":999,"REV_AT_EPOCH":12143,"BSTAR":0.00079155524,"MEAN_MOTION_DOT":0.00043164,"MEAN_MOTION_DDOT":0},{"OBJECT_NAME":"RTU MIREA 1 (RS51S)","OBJECT_ID":"2024-199BC","EPOCH":"2026-03-05T06:46:12.522432","MEAN_MOTION":15.50996158,"ECCENTRICITY":0.00087575,"INCLINATION":97.3117,"RA_OF_ASC_NODE":298.7165,"ARG_OF_PERICENTER":308.4793,"MEAN_ANOMALY":51.5673,"EPHEMERIS_TYPE":0,"CLASSIFICATION_TYPE":"U","NORAD_CAT_ID":61785,"ELEMENT_SET_NO":999,"REV_AT_EPOCH":11831,"BSTAR":0.00084579605,"MEAN_MOTION_DOT":0.00049306,"MEAN_MOTION_DDOT":0},{"OBJECT_NAME":"TEVEL2-4","OBJECT_ID":"2025-052D","EPOCH":"2026-03-05T05:58:52.853376","MEAN_MOTION":15.30701158,"ECCENTRICITY":0.00045872,"INCLINATION":97.4029,"RA_OF_ASC_NODE":320.6902,"ARG_OF_PERICENTER":104.2411,"MEAN_ANOMALY":255.9339,"EPHEMERIS_TYPE":0,"CLASSIFICATION_TYPE":"U","NORAD_CAT_ID":63213,"ELEMENT_SET_NO":999,"REV_AT_EPOCH":5419,"BSTAR":0.00081496677,"MEAN_MOTION_DOT":0.00024165,"MEAN_MOTION_DDOT":0},{"OBJECT_NAME":"TEVEL2-5","OBJECT_ID":"2025-052E","EPOCH":"2026-03-05T03:05:52.279584","MEAN_MOTION":15.30576556,"ECCENTRICITY":0.00045291,"INCLINATION":97.4027,"RA_OF_ASC_NODE":320.5439,"ARG_OF_PERICENTER":104.6405,"MEAN_ANOMALY":255.5338,"EPHEMERIS_TYPE":0,"CLASSIFICATION_TYPE":"U","NORAD_CAT_ID":63214,"ELEMENT_SET_NO":999,"REV_AT_EPOCH":5417,"BSTAR":0.00080779412,"MEAN_MOTION_DOT":0.00023858,"MEAN_MOTION_DDOT":0}]
